IRIDIUM 921             
1 24873U 97034E   24361.55547808  .00199356  00000+0  13944-2 0  9990
2 24873  86.3677 190.9679 0001494  54.6749 305.4663 15.73687978505016
IRIDIUM 26              
1 24903U 97043A   24361.49869072  .00001078  00000+0  35833-3 0  9992
2 24903  86.3978 183.0894 0001833  84.7284 275.4122 14.36868800431940
IRIDIUM 22              
1 24907U 97043E   24361.56623318  .00000985  00000+0  33447-3 0  9990
2 24907  86.3981 186.4479 0001990  90.2513 269.8912 14.35712573432001
DUMMY MASS 1            
1 24925U 97048A   24361.59021723  .00000988  00000+0  10799-3 0  9998
2 24925  86.3353 215.0563 0008429  51.0569 309.1405 14.86695962479483
DUMMY MASS 2            
1 24926U 97048B   24361.45639609  .00000942  00000+0  10341-3 0  9995
2 24926  86.3352 216.6935 0009499  59.4407 300.7753 14.86450000479243
IRIDIUM 29              
1 24944U 97051A   24361.57816693  .00000956  00000+0  32132-3 0  9999
2 24944  86.3965 216.2206 0002189  88.5869 271.5579 14.36179323428497
IRIDIUM 33              
1 24946U 97051C   24361.58445838  .00000605  00000+0  20704-3 0  9994
2 24946  86.3881 215.4664 0005950 286.4290  73.6252 14.34697285427994
IRIDIUM 28              
1 24948U 97051E   24361.59401250  .00000891  00000+0  29359-3 0  9999
2 24948  86.3972 213.8288 0001602  80.2374 279.9005 14.37124362429054
