<?xml version="1.0" encoding="UTF-8"?>
<ndm xmlns:xsi="http://www.w3.org/2001/XMLSchema-instance" xsi:noNamespaceSchemaLocation="https://sanaregistry.org/r/ndmxml_unqualified/ndmxml-2.0.0-master-2.0.xsd">
<omm id="CCSDS_OMM_VERS" version="2.0">
<header><CREATION_DATE/><ORIGINATOR/></header><body><segment><metadata><OBJECT_NAME>IRIDIUM 921</OBJECT_NAME><OBJECT_ID>1997-034E</OBJECT_ID><CENTER_NAME>EARTH</CENTER_NAME><REF_FRAME>TEME</REF_FRAME><TIME_SYSTEM>UTC</TIME_SYSTEM><MEAN_ELEMENT_THEORY>SGP4</MEAN_ELEMENT_THEORY></metadata><data><meanElements><EPOCH>2024-12-26T13:19:53.306112</EPOCH><MEAN_MOTION>15.73687978</MEAN_MOTION><ECCENTRICITY>.0001494</ECCENTRICITY><INCLINATION>86.3677</INCLINATION><RA_OF_ASC_NODE>190.9679</RA_OF_ASC_NODE><ARG_OF_PERICENTER>54.6749</ARG_OF_PERICENTER><MEAN_ANOMALY>305.4663</MEAN_ANOMALY></meanElements><tleParameters><EPHEMERIS_TYPE>0</EPHEMERIS_TYPE><CLASSIFICATION_TYPE>U</CLASSIFICATION_TYPE><NORAD_CAT_ID>24873</NORAD_CAT_ID><ELEMENT_SET_NO>999</ELEMENT_SET_NO><REV_AT_EPOCH>50501</REV_AT_EPOCH><BSTAR>.13944E-2</BSTAR><MEAN_MOTION_DOT>.199356E-2</MEAN_MOTION_DOT><MEAN_MOTION_DDOT>0</MEAN_MOTION_DDOT></tleParameters></data></segment></body></omm>
<omm id="CCSDS_OMM_VERS" version="2.0">
<header><CREATION_DATE/><ORIGINATOR/></header><body><segment><metadata><OBJECT_NAME>IRIDIUM 26</OBJECT_NAME><OBJECT_ID>1997-043A</OBJECT_ID><CENTER_NAME>EARTH</CENTER_NAME><REF_FRAME>TEME</REF_FRAME><TIME_SYSTEM>UTC</TIME_SYSTEM><MEAN_ELEMENT_THEORY>SGP4</MEAN_ELEMENT_THEORY></metadata><data><meanElements><EPOCH>2024-12-26T11:58:06.878208</EPOCH><MEAN_MOTION>14.36868800</MEAN_MOTION><ECCENTRICITY>.0001833</ECCENTRICITY><INCLINATION>86.3978</INCLINATION><RA_OF_ASC_NODE>183.0894</RA_OF_ASC_NODE><ARG_OF_PERICENTER>84.7284</ARG_OF_PERICENTER><MEAN_ANOMALY>275.4122</MEAN_ANOMALY></meanElements><tleParameters><EPHEMERIS_TYPE>0</EPHEMERIS_TYPE><CLASSIFICATION_TYPE>U</CLASSIFICATION_TYPE><NORAD_CAT_ID>24903</NORAD_CAT_ID><ELEMENT_SET_NO>999</ELEMENT_SET_NO><REV_AT_EPOCH>43194</REV_AT_EPOCH><BSTAR>.35833E-3</BSTAR><MEAN_MOTION_DOT>.1078E-4</MEAN_MOTION_DOT><MEAN_MOTION_DDOT>0</MEAN_MOTION_DDOT></tleParameters></data></segment></body></omm>
<omm id="CCSDS_OMM_VERS" version="2.0">
<header><CREATION_DATE/><ORIGINATOR/></header><body><segment><metadata><OBJECT_NAME>IRIDIUM 22</OBJECT_NAME><OBJECT_ID>1997-043E</OBJECT_ID><CENTER_NAME>EARTH</CENTER_NAME><REF_FRAME>TEME</REF_FRAME><TIME_SYSTEM>UTC</TIME_SYSTEM><MEAN_ELEMENT_THEORY>SGP4</MEAN_ELEMENT_THEORY></metadata><data><meanElements><EPOCH>2024-12-26T13:35:22.546752</EPOCH><MEAN_MOTION>14.35712573</MEAN_MOTION><ECCENTRICITY>.000199</ECCENTRICITY><INCLINATION>86.3981</INCLINATION><RA_OF_ASC_NODE>186.4479</RA_OF_ASC_NODE><ARG_OF_PERICENTER>90.2513</ARG_OF_PERICENTER><MEAN_ANOMALY>269.8912</MEAN_ANOMALY></meanElements><tleParameters><EPHEMERIS_TYPE>0</EPHEMERIS_TYPE><CLASSIFICATION_TYPE>U</CLASSIFICATION_TYPE><NORAD_CAT_ID>24907</NORAD_CAT_ID><ELEMENT_SET_NO>999</ELEMENT_SET_NO><REV_AT_EPOCH>43200</REV_AT_EPOCH><BSTAR>.33447E-3</BSTAR><MEAN_MOTION_DOT>.985E-5</MEAN_MOTION_DOT><MEAN_MOTION_DDOT>0</MEAN_MOTION_DDOT></tleParameters></data></segment></body></omm>
<omm id="CCSDS_OMM_VERS" version="2.0">
<header><CREATION_DATE/><ORIGINATOR/></header><body><segment><metadata><OBJECT_NAME>DUMMY MASS 1</OBJECT_NAME><OBJECT_ID>1997-048A</OBJECT_ID><CENTER_NAME>EARTH</CENTER_NAME><REF_FRAME>TEME</REF_FRAME><TIME_SYSTEM>UTC</TIME_SYSTEM><MEAN_ELEMENT_THEORY>SGP4</MEAN_ELEMENT_THEORY></metadata><data><meanElements><EPOCH>2024-12-26T14:09:54.768672</EPOCH><MEAN_MOTION>14.86695962</MEAN_MOTION><ECCENTRICITY>.0008429</ECCENTRICITY><INCLINATION>86.3353</INCLINATION><RA_OF_ASC_NODE>215.0563</RA_OF_ASC_NODE><ARG_OF_PERICENTER>51.0569</ARG_OF_PERICENTER><MEAN_ANOMALY>309.1405</MEAN_ANOMALY></meanElements><tleParameters><EPHEMERIS_TYPE>0</EPHEMERIS_TYPE><CLASSIFICATION_TYPE>U</CLASSIFICATION_TYPE><NORAD_CAT_ID>24925</NORAD_CAT_ID><ELEMENT_SET_NO>999</ELEMENT_SET_NO><REV_AT_EPOCH>47948</REV_AT_EPOCH><BSTAR>.10799E-3</BSTAR><MEAN_MOTION_DOT>.988E-5</MEAN_MOTION_DOT><MEAN_MOTION_DDOT>0</MEAN_MOTION_DDOT></tleParameters></data></segment></body></omm>
<omm id="CCSDS_OMM_VERS" version="2.0">
<header><CREATION_DATE/><ORIGINATOR/></header><body><segment><metadata><OBJECT_NAME>DUMMY MASS 2</OBJECT_NAME><OBJECT_ID>1997-048B</OBJECT_ID><CENTER_NAME>EARTH</CENTER_NAME><REF_FRAME>TEME</REF_FRAME><TIME_SYSTEM>UTC</TIME_SYSTEM><MEAN_ELEMENT_THEORY>SGP4</MEAN_ELEMENT_THEORY></metadata><data><meanElements><EPOCH>2024-12-26T10:57:12.622176</EPOCH><MEAN_MOTION>14.86450000</MEAN_MOTION><ECCENTRICITY>.0009499</ECCENTRICITY><INCLINATION>86.3352</INCLINATION><RA_OF_ASC_NODE>216.6935</RA_OF_ASC_NODE><ARG_OF_PERICENTER>59.4407</ARG_OF_PERICENTER><MEAN_ANOMALY>300.7753</MEAN_ANOMALY></meanElements><tleParameters><EPHEMERIS_TYPE>0</EPHEMERIS_TYPE><CLASSIFICATION_TYPE>U</CLASSIFICATION_TYPE><NORAD_CAT_ID>24926</NORAD_CAT_ID><ELEMENT_SET_NO>999</ELEMENT_SET_NO><REV_AT_EPOCH>47924</REV_AT_EPOCH><BSTAR>.10341E-3</BSTAR><MEAN_MOTION_DOT>.942E-5</MEAN_MOTION_DOT><MEAN_MOTION_DDOT>0</MEAN_MOTION_DDOT></tleParameters></data></segment></body></omm>
<omm id="CCSDS_OMM_VERS" version="2.0">
<header><CREATION_DATE/><ORIGINATOR/></header><body><segment><metadata><OBJECT_NAME>IRIDIUM 29</OBJECT_NAME><OBJECT_ID>1997-051A</OBJECT_ID><CENTER_NAME>EARTH</CENTER_NAME><REF_FRAME>TEME</REF_FRAME><TIME_SYSTEM>UTC</TIME_SYSTEM><MEAN_ELEMENT_THEORY>SGP4</MEAN_ELEMENT_THEORY></metadata><data><meanElements><EPOCH>2024-12-26T13:52:33.622752</EPOCH><MEAN_MOTION>14.36179323</MEAN_MOTION><ECCENTRICITY>.0002189</ECCENTRICITY><INCLINATION>86.3965</INCLINATION><RA_OF_ASC_NODE>216.2206</RA_OF_ASC_NODE><ARG_OF_PERICENTER>88.5869</ARG_OF_PERICENTER><MEAN_ANOMALY>271.5579</MEAN_ANOMALY></meanElements><tleParameters><EPHEMERIS_TYPE>0</EPHEMERIS_TYPE><CLASSIFICATION_TYPE>U</CLASSIFICATION_TYPE><NORAD_CAT_ID>24944</NORAD_CAT_ID><ELEMENT_SET_NO>999</ELEMENT_SET_NO><REV_AT_EPOCH>42849</REV_AT_EPOCH><BSTAR>.32132E-3</BSTAR><MEAN_MOTION_DOT>.956E-5</MEAN_MOTION_DOT><MEAN_MOTION_DDOT>0</MEAN_MOTION_DDOT></tleParameters></data></segment></body></omm>
<omm id="CCSDS_OMM_VERS" version="2.0">
<header><CREATION_DATE/><ORIGINATOR/></header><body><segment><metadata><OBJECT_NAME>IRIDIUM 33</OBJECT_NAME><OBJECT_ID>1997-051C</OBJECT_ID><CENTER_NAME>EARTH</CENTER_NAME><REF_FRAME>TEME</REF_FRAME><TIME_SYSTEM>UTC</TIME_SYSTEM><MEAN_ELEMENT_THEORY>SGP4</MEAN_ELEMENT_THEORY></metadata><data><meanElements><EPOCH>2024-12-26T14:01:37.204032</EPOCH><MEAN_MOTION>14.34697285</MEAN_MOTION><ECCENTRICITY>.000595</ECCENTRICITY><INCLINATION>86.3881</INCLINATION><RA_OF_ASC_NODE>215.4664</RA_OF_ASC_NODE><ARG_OF_PERICENTER>286.4290</ARG_OF_PERICENTER><MEAN_ANOMALY>73.6252</MEAN_ANOMALY></meanElements><tleParameters><EPHEMERIS_TYPE>0</EPHEMERIS_TYPE><CLASSIFICATION_TYPE>U</CLASSIFICATION_TYPE><NORAD_CAT_ID>24946</NORAD_CAT_ID><ELEMENT_SET_NO>999</ELEMENT_SET_NO><REV_AT_EPOCH>42799</REV_AT_EPOCH><BSTAR>.20704E-3</BSTAR><MEAN_MOTION_DOT>.605E-5</MEAN_MOTION_DOT><MEAN_MOTION_DDOT>0</MEAN_MOTION_DDOT></tleParameters></data></segment></body></omm>
<omm id="CCSDS_OMM_VERS" version="2.0">
<header><CREATION_DATE/><ORIGINATOR/></header><body><segment><metadata><OBJECT_NAME>IRIDIUM 28</OBJECT_NAME><OBJECT_ID>1997-051E</OBJECT_ID><CENTER_NAME>EARTH</CENTER_NAME><REF_FRAME>TEME</REF_FRAME><TIME_SYSTEM>UTC</TIME_SYSTEM><MEAN_ELEMENT_THEORY>SGP4</MEAN_ELEMENT_THEORY></metadata><data><meanElements><EPOCH>2024-12-26T14:15:22.680000</EPOCH><MEAN_MOTION>14.37124362</MEAN_MOTION><ECCENTRICITY>.0001602</ECCENTRICITY><INCLINATION>86.3972</INCLINATION><RA_OF_ASC_NODE>213.8288</RA_OF_ASC_NODE><ARG_OF_PERICENTER>80.2374</ARG_OF_PERICENTER><MEAN_ANOMALY>279.9005</MEAN_ANOMALY></meanElements><tleParameters><EPHEMERIS_TYPE>0</EPHEMERIS_TYPE><CLASSIFICATION_TYPE>U</CLASSIFICATION_TYPE><NORAD_CAT_ID>24948</NORAD_CAT_ID><ELEMENT_SET_NO>999</ELEMENT_SET_NO><REV_AT_EPOCH>42905</REV_AT_EPOCH><BSTAR>.29359E-3</BSTAR><MEAN_MOTION_DOT>.891E-5</MEAN_MOTION_DOT><MEAN_MOTION_DDOT>0</MEAN_MOTION_DDOT></tleParameters></data></segment></body></omm>

</ndm>
